{"type": "FeatureCollection", "features": [ {"type": "Feature", "properties": {"norad_id": 33492, "name": "GOSAT (IBUKI)", "group": "resource", "lat": 63.6479020352511, "lon": 70.95374514213154, "alt_km": 662.0674217764936, "timestamp": "2025-12-04T21:36:15.531007+00:00", "meta": {"OBJECT_NAME": "GOSAT (IBUKI)", "OBJECT_ID": "2009-002A", "EPOCH": "2025-12-04T13:07:41.435040", "MEAN_MOTION": 14.67546506, "ECCENTRICITY": 9.336e-05, "INCLINATION": 98.077, "RA_OF_ASC_NODE": 87.2643, "ARG_OF_PERICENTER": 82.6691, "MEAN_ANOMALY": 277.462, "EPHEMERIS_TYPE": 0, "CLASSIFICATION_TYPE": "U", "NORAD_CAT_ID": 33492, "ELEMENT_SET_NO": 999, "REV_AT_EPOCH": 90291, "BSTAR": 0.00032095273, "MEAN_MOTION_DOT": 1.773e-05, "MEAN_MOTION_DDOT": 0}, "tle": {"line1": "1 33492U 09002A   25338.54700735  .00001773  00000+0  32095-3 0  9993", "line2": "2 33492  98.0770  87.2643 0000933  82.6691 277.4620 14.67546506902914"}}, "geometry": {"type": "Point", "coordinates": [70.95374514213154, 63.6479020352511]}}, {"type": "Feature", "properties": {"norad_id": 35681, "name": "DEIMOS-1", "group": "resource", "lat": -64.52745830583693, "lon": 156.4006541832106, "alt_km": 654.3556156510531, "timestamp": "2025-12-04T21:36:15.531018+00:00", "meta": {"OBJECT_NAME": "DEIMOS-1", "OBJECT_ID": "2009-041A", "EPOCH": "2025-12-04T13:45:38.555424", "MEAN_MOTION": 14.74933704, "ECCENTRICITY": 0.00026923, "INCLINATION": 97.7146, "RA_OF_ASC_NODE": 139.5573, "ARG_OF_PERICENTER": 94.9285, "MEAN_ANOMALY": 265.2233, "EPHEMERIS_TYPE": 0, "CLASSIFICATION_TYPE": "U", "NORAD_CAT_ID": 35681, "ELEMENT_SET_NO": 999, "REV_AT_EPOCH": 87819, "BSTAR": 0.0002137069, "MEAN_MOTION_DOT": 1.388e-05, "MEAN_MOTION_DDOT": 0}, "tle": {"line1": "1 35681U 09041A   25338.57336291  .00001388  00000+0  21371-3 0  9990", "line2": "2 35681  97.7146 139.5573 0002692  94.9285 265.2233 14.74933704878196"}}, "geometry": {"type": "Point", "coordinates": [156.4006541832106, -64.52745830583693]}}, {"type": "Feature", "properties": {"norad_id": 35682, "name": "DUBAISAT-1", "group": "resource", "lat": -58.20443253471554, "lon": -83.38059408886299, "alt_km": 655.1477595442584, "timestamp": "2025-12-04T21:36:15.531029+00:00", "meta": {"OBJECT_NAME": "DUBAISAT-1", "OBJECT_ID": "2009-041B", "EPOCH": "2025-12-04T09:07:21.717408", "MEAN_MOTION": 14.74567058, "ECCENTRICITY": 0.00101187, "INCLINATION": 97.9787, "RA_OF_ASC_NODE": 109.1835, "ARG_OF_PERICENTER": 343.1086, "MEAN_ANOMALY": 16.9784, "EPHEMERIS_TYPE": 0, "CLASSIFICATION_TYPE": "U", "NORAD_CAT_ID": 35682, "ELEMENT_SET_NO": 999, "REV_AT_EPOCH": 87638, "BSTAR": 0.00037196583, "MEAN_MOTION_DOT": 2.429e-05, "MEAN_MOTION_DDOT": 0}, "tle": {"line1": "1 35682U 09041B   25338.38011247  .00002429  00000+0  37197-3 0  9991", "line2": "2 35682  97.9787 109.1835 0010118 343.1086  16.9784 14.74567058876380"}}, "geometry": {"type": "Point", "coordinates": [-83.38059408886299, -58.20443253471554]}}, {"type": "Feature", "properties": {"norad_id": 35931, "name": "OCEANSAT-2", "group": "resource", "lat": 8.897464512187408, "lon": -21.001380290535536, "alt_km": 890.0674587387475, "timestamp": "2025-12-04T21:36:15.531040+00:00", "meta": {"OBJECT_NAME": "OCEANSAT-2", "OBJECT_ID": "2009-051A", "EPOCH": "2025-12-04T14:41:55.451904", "MEAN_MOTION": 13.99626492, "ECCENTRICITY": 0.00165404, "INCLINATION": 98.223, "RA_OF_ASC_NODE": 340.0372, "ARG_OF_PERICENTER": 66.194, "MEAN_ANOMALY": 294.0959, "EPHEMERIS_TYPE": 0, "CLASSIFICATION_TYPE": "U", "NORAD_CAT_ID": 35931, "ELEMENT_SET_NO": 999, "REV_AT_EPOCH": 85211, "BSTAR": -6.9887613e-05, "MEAN_MOTION_DOT": -1.4e-06, "MEAN_MOTION_DDOT": 0}, "tle": {"line1": "1 35931U 09051A   25338.61244736 -.00000140  00000+0 -69888-4 0  9999", "line2": "2 35931  98.2230 340.0372 0016540  66.1940 294.0959 13.99626492852114"}}, "geometry": {"type": "Point", "coordinates": [-21.001380290535536, 8.897464512187408]}}, {"type": "Feature", "properties": {"norad_id": 35946, "name": "WORLDVIEW-2 (WV-2)", "group": "resource", "lat": 40.8927006690644, "lon": -122.48530556558936, "alt_km": 760.670823776335, "timestamp": "2025-12-04T21:36:15.531051+00:00", "meta": {"OBJECT_NAME": "WORLDVIEW-2 (WV-2)", "OBJECT_ID": "2009-055A", "EPOCH": "2025-12-04T14:16:53.232384", "MEAN_MOTION": 14.37647062, "ECCENTRICITY": 0.00054317, "INCLINATION": 98.477, "RA_OF_ASC_NODE": 49.7932, "ARG_OF_PERICENTER": 86.4652, "MEAN_ANOMALY": 273.7156, "EPHEMERIS_TYPE": 0, "CLASSIFICATION_TYPE": "U", "NORAD_CAT_ID": 35946, "ELEMENT_SET_NO": 999, "REV_AT_EPOCH": 84768, "BSTAR": 0.00014760007, "MEAN_MOTION_DOT": 4e-06, "MEAN_MOTION_DDOT": 0}, "tle": {"line1": "1 35946U 09055A   25338.59506056  .00000400  00000+0  14760-3 0  9997", "line2": "2 35946  98.4770  49.7932 0005431  86.4652 273.7156 14.37647062847686"}}, "geometry": {"type": "Point", "coordinates": [-122.48530556558936, 40.8927006690644]}}, {"type": "Feature", "properties": {"norad_id": 36036, "name": "SMOS", "group": "resource", "lat": 63.340193171040696, "lon": 1.262224770395843, "alt_km": 752.4738942869762, "timestamp": "2025-12-04T21:36:15.531061+00:00", "meta": {"OBJECT_NAME": "SMOS", "OBJECT_ID": "2009-059A", "EPOCH": "2025-12-04T12:43:52.487040", "MEAN_MOTION": 14.39791112, "ECCENTRICITY": 0.0001012, "INCLINATION": 98.4384, "RA_OF_ASC_NODE": 163.7002, "ARG_OF_PERICENTER": 72.1141, "MEAN_ANOMALY": 288.0158, "EPHEMERIS_TYPE": 0, "CLASSIFICATION_TYPE": "U", "NORAD_CAT_ID": 36036, "ELEMENT_SET_NO": 999, "REV_AT_EPOCH": 84544, "BSTAR": 0.00025731876, "MEAN_MOTION_DOT": 7.63e-06, "MEAN_MOTION_DDOT": 0}, "tle": {"line1": "1 36036U 09059A   25338.53046860  .00000763  00000+0  25732-3 0  9991", "line2": "2 36036  98.4384 163.7002 0001012  72.1141 288.0158 14.39791112845440"}}, "geometry": {"type": "Point", "coordinates": [1.262224770395843, 63.340193171040696]}}, {"type": "Feature", "properties": {"norad_id": 36110, "name": "YAOGAN-7", "group": "resource", "lat": -49.45570322454532, "lon": -129.8159474949788, "alt_km": 626.7997185057193, "timestamp": "2025-12-04T21:36:15.531072+00:00", "meta": {"OBJECT_NAME": "YAOGAN-7", "OBJECT_ID": "2009-069A", "EPOCH": "2025-12-04T15:19:45.779520", "MEAN_MOTION": 14.77713846, "ECCENTRICITY": 0.00237327, "INCLINATION": 98.0302, "RA_OF_ASC_NODE": 220.4244, "ARG_OF_PERICENTER": 308.6984, "MEAN_ANOMALY": 51.2103, "EPHEMERIS_TYPE": 0, "CLASSIFICATION_TYPE": "U", "NORAD_CAT_ID": 36110, "ELEMENT_SET_NO": 999, "REV_AT_EPOCH": 86089, "BSTAR": 0.00019834639, "MEAN_MOTION_DOT": 1.374e-05, "MEAN_MOTION_DDOT": 0}, "tle": {"line1": "1 36110U 09069A   25338.63872430  .00001374  00000+0  19835-3 0  9992", "line2": "2 36110  98.0302 220.4244 0023732 308.6984  51.2103 14.77713846860899"}}, "geometry": {"type": "Point", "coordinates": [-129.8159474949788, -49.45570322454532]}}, {"type": "Feature", "properties": {"norad_id": 36605, "name": "TANDEM-X", "group": "resource", "lat": 69.9679762913497, "lon": -174.5899655837692, "alt_km": 500.4612914720201, "timestamp": "2025-12-04T21:36:15.531082+00:00", "meta": {"OBJECT_NAME": "TANDEM-X", "OBJECT_ID": "2010-030A", "EPOCH": "2025-12-03T18:15:14.537088", "MEAN_MOTION": 15.1916235, "ECCENTRICITY": 0.00017564, "INCLINATION": 97.4443, "RA_OF_ASC_NODE": 343.2715, "ARG_OF_PERICENTER": 92.1775, "MEAN_ANOMALY": 267.9661, "EPHEMERIS_TYPE": 0, "CLASSIFICATION_TYPE": "U", "NORAD_CAT_ID": 36605, "ELEMENT_SET_NO": 999, "REV_AT_EPOCH": 85697, "BSTAR": 0.00011369196, "MEAN_MOTION_DOT": 2.322e-05, "MEAN_MOTION_DDOT": 0}, "tle": {"line1": "1 36605U 10030A   25337.76058492  .00002322  00000+0  11369-3 0  9996", "line2": "2 36605  97.4443 343.2715 0001756  92.1775 267.9661 15.19162350856973"}}, "geometry": {"type": "Point", "coordinates": [-174.5899655837692, 69.9679762913497]}}, {"type": "Feature", "properties": {"norad_id": 36795, "name": "CARTOSAT-2B", "group": "resource", "lat": -28.026074130600946, "lon": -155.99208007429698, "alt_km": 641.786237263309, "timestamp": "2025-12-04T21:36:15.531092+00:00", "meta": {"OBJECT_NAME": "CARTOSAT-2B", "OBJECT_ID": "2010-035A", "EPOCH": "2025-12-04T15:47:42.298944", "MEAN_MOTION": 14.78770067, "ECCENTRICITY": 0.00128955, "INCLINATION": 97.7865, "RA_OF_ASC_NODE": 27.9506, "ARG_OF_PERICENTER": 101.3269, "MEAN_ANOMALY": 258.9392, "EPHEMERIS_TYPE": 0, "CLASSIFICATION_TYPE": "U", "NORAD_CAT_ID": 36795, "ELEMENT_SET_NO": 999, "REV_AT_EPOCH": 83110, "BSTAR": 0.00021045092, "MEAN_MOTION_DOT": 1.498e-05, "MEAN_MOTION_DDOT": 0}, "tle": {"line1": "1 36795U 10035A   25338.65812846  .00001498  00000+0  21045-3 0  9996", "line2": "2 36795  97.7865  27.9506 0012895 101.3269 258.9392 14.78770067831108"}}, "geometry": {"type": "Point", "coordinates": [-155.99208007429698, -28.026074130600946]}}, {"type": "Feature", "properties": {"norad_id": 36834, "name": "YAOGAN-10", "group": "resource", "lat": 54.874362484726234, "lon": -169.81448982430166, "alt_km": 608.9475958903004, "timestamp": "2025-12-04T21:36:15.531102+00:00", "meta": {"OBJECT_NAME": "YAOGAN-10", "OBJECT_ID": "2010-038A", "EPOCH": "2025-12-04T15:15:29.912832", "MEAN_MOTION": 14.84559862, "ECCENTRICITY": 0.00015176, "INCLINATION": 97.9146, "RA_OF_ASC_NODE": 358.5175, "ARG_OF_PERICENTER": 85.7771, "MEAN_ANOMALY": 66.1922, "EPHEMERIS_TYPE": 0, "CLASSIFICATION_TYPE": "U", "NORAD_CAT_ID": 36834, "ELEMENT_SET_NO": 999, "REV_AT_EPOCH": 82833, "BSTAR": 0.0003362201, "MEAN_MOTION_DOT": 2.784e-05, "MEAN_MOTION_DDOT": 0}, "tle": {"line1": "1 36834U 10038A   25338.63576288  .00002784  00000+0  33622-3 0  9991", "line2": "2 36834  97.9146 358.5175 0001517  85.7771  66.1922 14.84559862828337"}}, "geometry": {"type": "Point", "coordinates": [-169.81448982430166, 54.874362484726234]}}]}